[{"OBJECT_NAME":"STARLINK-5928","OBJECT_ID":"2023-037AW","EPOCH":"2026-03-09T23:05:06.145152","MEAN_MOTION":14.98332921,"ECCENTRICITY":0.00025722,"INCLINATION":69.9983,"RA_OF_ASC_NODE":263.7808,"ARG_OF_PERICENTER":278.563,"MEAN_ANOMALY":81.5237,"EPHEMERIS_TYPE":0,"CLASSIFICATION_TYPE":"U","NORAD_CAT_ID":55958,"ELEMENT_SET_NO":999,"REV_AT_EPOCH":16451,"BSTAR":3.0624736e-5,"MEAN_MOTION_DOT":2.72e-6,"MEAN_MOTION_DDOT":0},{"OBJECT_NAME":"SL-8 DEB","OBJECT_ID":"1971-114C","EPOCH":"2026-03-09T10:06:38.914272","MEAN_MOTION":14.97936297,"ECCENTRICITY":0.00069633,"INCLINATION":74.0033,"RA_OF_ASC_NODE":186.861,"ARG_OF_PERICENTER":298.1447,"MEAN_ANOMALY":61.9034,"EPHEMERIS_TYPE":0,"CLASSIFICATION_TYPE":"U","NORAD_CAT_ID":5778,"ELEMENT_SET_NO":999,"REV_AT_EPOCH":88447,"BSTAR":0.0010014796,"MEAN_MOTION_DOT":0.00011794,"MEAN_MOTION_DDOT":0}]
